{
  "type": "FeatureCollection",
  "features": [
    {
      "type": "Feature",
      "geometry": {
        "type": "Point",
        "coordinates": [24.3811, 40.1697]
      },
      "properties": {
        "name": "Ι.Μ. Μεγίστης Λαύρας",
        "category": "Μονή"
      }
    },
    {
      "type": "Feature",
      "geometry": {
        "type": "Point",
        "coordinates": [24.2124, 40.3145]
      },
      "properties": {
        "name": "Ι.Μ. Βατοπαιδίου",
        "category": "Μονή"
      }
    },
    {
      "type": "Feature",
      "geometry": {
        "type": "Point",
        "coordinates": [24.1746, 40.2887]
      },
      "properties": {
        "name": "Ι.Μ. Ιβήρων",
        "category": "Μονή"
      }
    },
    {
      "type": "Feature",
      "geometry": {
        "type": "Point",
        "coordinates": [24.1208, 40.3398]
      },
      "properties": {
        "name": "Ι.Μ. Χιλανδαρίου",
        "category": "Μονή"
      }
    },
    {
      "type": "Feature",
      "geometry": {
        "type": "Point",
        "coordinates": [24.2014, 40.2379]
      },
      "properties": {
        "name": "Ι.Μ. Διονυσίου",
        "category": "Μονή"
      }
    },
    {
      "type": "Feature",
      "geometry": {
        "type": "Point",
        "coordinates": [24.2468, 40.2535]
      },
      "properties": {
        "name": "Ι.Μ. Κουτλουμουσίου",
        "category": "Μονή"
      }
    },
    {
      "type": "Feature",
      "geometry": {
        "type": "Point",
        "coordinates": [24.2903, 40.1613]
      },
      "properties": {
        "name": "Ι.Μ. Παντοκράτορος",
        "category": "Μονή"
      }
    },
    {
      "type": "Feature",
      "geometry": {
        "type": "Point",
        "coordinates": [24.1372, 40.3521]
      },
      "properties": {
        "name": "Ι.Μ. Ξηροποτάμου",
        "category": "Μονή"
      }
    },
    {
      "type": "Feature",
      "geometry": {
        "type": "Point",
        "coordinates": [24.1786, 40.2584]
      },
      "properties": {
        "name": "Ι.Μ. Ζωγράφου",
        "category": "Μονή"
      }
    },
    {
      "type": "Feature",
      "geometry": {
        "type": "Point",
        "coordinates": [24.2119, 40.3147]
      },
      "properties": {
        "name": "Ι.Μ. Δοχειαρίου",
        "category": "Μονή"
      }
    },
    {
      "type": "Feature",
      "geometry": {
        "type": "Point",
        "coordinates": [24.3096, 40.2238]
      },
      "properties": {
        "name": "Ι.Μ. Καρακάλλου",
        "category": "Μονή"
      }
    },
    {
      "type": "Feature",
      "geometry": {
        "type": "Point",
        "coordinates": [24.2900, 40.2455]
      },
      "properties": {
        "name": "Ι.Μ. Φιλοθέου",
        "category": "Μονή"
      }
    },
    {
      "type": "Feature",
      "geometry": {
        "type": "Point",
        "coordinates": [24.2469, 40.1905]
      },
      "properties": {
        "name": "Ι.Μ. Σίμωνος Πέτρας",
        "category": "Μονή"
      }
    },
    {
      "type": "Feature",
      "geometry": {
        "type": "Point",
        "coordinates": [24.2744, 40.1684]
      },
      "properties": {
        "name": "Ι.Μ. Αγίου Παύλου",
        "category": "Μονή"
      }
    },
    {
      "type": "Feature",
      "geometry": {
        "type": "Point",
        "coordinates": [24.2475, 40.2531]
      },
      "properties": {
        "name": "Ι.Μ. Σταυρονικήτα",
        "category": "Μονή"
      }
    },
    {
      "type": "Feature",
      "geometry": {
        "type": "Point",
        "coordinates": [24.2775, 40.2681]
      },
      "properties": {
        "name": "Ι.Μ. Ξενοφώντος",
        "category": "Μονή"
      }
    },
    {
      "type": "Feature",
      "geometry": {
        "type": "Point",
        "coordinates": [24.2558, 40.1797]
      },
      "properties": {
        "name": "Ι.Μ. Γρηγορίου",
        "category": "Μονή"
      }
    },
    {
      "type": "Feature",
      "geometry": {
        "type": "Point",
        "coordinates": [24.2669, 40.2836]
      },
      "properties": {
        "name": "Ι.Μ. Εσφιγμένου",
        "category": "Μονή"
      }
    },
    {
      "type": "Feature",
      "geometry": {
        "type": "Point",
        "coordinates": [24.2847, 40.2459]
      },
      "properties": {
        "name": "Ι.Μ. Αγίου Παντελεήμονος",
        "category": "Μονή"
      }
    },
    {
      "type": "Feature",
      "geometry": {
        "type": "Point",
        "coordinates": [24.2389, 40.2916]
      },
      "properties": {
        "name": "Ι.Μ. Κωνσταμονίτου",
        "category": "Μονή"
      }
    },
    {
      "type": "Feature",
      "geometry": {
        "type": "Point",
        "coordinates": [24.2897, 40.1479]
      },
      "properties": {
        "name": "Σκήτη Αγίας Άννας",
        "category": "Σκήτη"
      }
    },
    {
      "type": "Feature",
      "geometry": {
        "type": "Point",
        "coordinates": [24.2797, 40.2398]
      },
      "properties": {
        "name": "Σκήτη Τιμίου Προδρόμου (Ρουμανική)",
        "category": "Σκήτη"
      }
    },
    {
      "type": "Feature",
      "geometry": {
        "type": "Point",
        "coordinates": [24.2378, 40.2664]
      },
      "properties": {
        "name": "Σκήτη Αγίου Δημητρίου (Βατοπαιδινή)",
        "category": "Σκήτη"
      }
    },
    {
      "type": "Feature",
      "geometry": {
        "type": "Point",
        "coordinates": [24.2527, 40.2543]
      },
      "properties": {
        "name": "Σκήτη Παντελεήμονος (Κουτλουμουσίου)",
        "category": "Σκήτη"
      }
    },
    {
      "type": "Feature",
      "geometry": {
        "type": "Point",
        "coordinates": [24.3111, 40.1292]
      },
      "properties": {
        "name": "Σκήτη Προφήτη Ηλία (Παντοκράτορος)",
        "category": "Σκήτη"
      }
    },
    {
      "type": "Feature",
      "geometry": {
        "type": "Point",
        "coordinates": [24.2895, 40.1479]
      },
      "properties": {
        "name": "Νέα Σκήτη",
        "category": "Σκήτη"
      }
    },
    {
      "type": "Feature",
      "geometry": {
        "type": "Point",
        "coordinates": [24.1735, 40.2886]
      },
      "properties": {
        "name": "Σκήτη Ιβηρική (Τιμίου Προδρόμου)",
        "category": "Σκήτη"
      }
    },
    {
      "type": "Feature",
      "geometry": {
        "type": "Point",
        "coordinates": [24.2768, 40.2681]
      },
      "properties": {
        "name": "Σκήτη Ευαγγελισμού της Θεοτόκου",
        "category": "Σκήτη"
      }
    },
    {
      "type": "Feature",
      "geometry": {
        "type": "Point",
        "coordinates": [24.2390, 40.2916]
      },
      "properties": {
        "name": "Σκήτη Αγίου Ανδρέα (Σαράι)",
        "category": "Σκήτη"
      }
    },
    {
      "type": "Feature",
      "geometry": {
        "type": "Point",
        "coordinates": [24.2389, 40.2923]
      },
      "properties": {
        "name": "Σκήτη Κοιμήσεως της Θεοτόκου (Μπογορόδιτσα)",
        "category": "Σκήτη"
      }
    },
    {
      "type": "Feature",
      "geometry": {
        "type": "Point",
        "coordinates": [24.3404, 40.1304]
      },
      "properties": {
        "name": "Σκήτη Αγίας Τριάδος (Καυσοκαλύβια)",
        "category": "Σκήτη"
      }
    },
    {
      "type": "Feature",
      "geometry": {
        "type": "Point",
        "coordinates": [24.2453, 40.2575]
      },
      "properties": {
        "name": "Καρυές (Πρωτάτο)",
        "category": "Σημείο Ενδιαφέροντος"
      }
    },
    {
      "type": "Feature",
      "geometry": {
        "type": "Point",
        "coordinates": [24.2220, 40.2145]
      },
      "properties": {
        "name": "Δάφνη (Λιμάνι)",
        "category": "Σημείο Ενδιαφέροντος"
      }
    }
  ]
}
